[{"OBJECT_NAME":"STARLINK-2646","OBJECT_ID":"2021-044E","EPOCH":"2026-03-09T10:04:06.206592","MEAN_MOTION":15.30215302,"ECCENTRICITY":0.00013296,"INCLINATION":53.158,"RA_OF_ASC_NODE":115.1995,"ARG_OF_PERICENTER":78.8022,"MEAN_ANOMALY":281.3129,"EPHEMERIS_TYPE":0,"CLASSIFICATION_TYPE":"U","NORAD_CAT_ID":48642,"ELEMENT_SET_NO":999,"REV_AT_EPOCH":26378,"BSTAR":0.00034110891,"MEAN_MOTION_DOT":9.762e-5,"MEAN_MOTION_DDOT":0},{"OBJECT_NAME":"JILIN-1 GAOFEN 03D47","OBJECT_ID":"2022-167L","EPOCH":"2026-03-09T22:56:46.924224","MEAN_MOTION":15.31686941,"ECCENTRICITY":0.00089304,"INCLINATION":97.6835,"RA_OF_ASC_NODE":234.6581,"ARG_OF_PERICENTER":110.4031,"MEAN_ANOMALY":249.8169,"EPHEMERIS_TYPE":0,"CLASSIFICATION_TYPE":"U","NORAD_CAT_ID":54692,"ELEMENT_SET_NO":999,"REV_AT_EPOCH":18014,"BSTAR":0.00047294748,"MEAN_MOTION_DOT":0.00014417,"MEAN_MOTION_DDOT":0}]
